FENGYUN 1C DEB          
1 31464U 99025BVC 17345.26598646  .00000150  00000-0  11048-3 0  9992
2 31464  99.1165 353.1514 0045191 188.4531 228.6226 14.09870834547797
